start=new Date('2023-01-28T00:00:00.000Z').valueOf();
sats=[{"SITE":"AFETR","TLE_LINE2":"2 46364  53.0567  17.6698 0001756  87.5410 272.5780 15.06434279133797","RA_OF_ASC_NODE":"17.6698","FILE":"3762956","DECAY_DATE":null,"INCLINATION":"53.0567","MEAN_MOTION":"15.06434279","LAUNCH_DATE":"2020-09-03","REV_AT_EPOCH":"13379","APOAPSIS":"548.325","EPHEMERIS_TYPE":"0","BSTAR":"0.00113410000000","REF_FRAME":"TEME","COUNTRY_CODE":"US","OBJECT_NAME":"STARLINK-1763","SEMIMAJOR_AXIS":"6925.243","PERIAPSIS":"545.892","CLASSIFICATION_TYPE":"U","GP_ID":"223801933","MEAN_MOTION_DOT":"0.00016667","RCS_SIZE":"LARGE","TLE_LINE1":"1 46364U 20062AR  23027.38771581  .00016667  00000-0  11341-2 0  9995","PERIOD":"95.590","ELEMENT_SET_NO":"999","CENTER_NAME":"EARTH","EPOCH":"2023-01-27T09:18:18.645984","ECCENTRICITY":"0.00017560","ARG_OF_PERICENTER":"87.5410","MEAN_MOTION_DDOT":"0.0000000000000","NORAD_CAT_ID":"46364","MEAN_ANOMALY":"272.5780","OBJECT_TYPE":"PAYLOAD","MEAN_ELEMENT_THEORY":"SGP4","TIME_SYSTEM":"UTC","OBJECT_ID":"2020-062AR"},{"COUNTRY_CODE":"US","REF_FRAME":"TEME","BSTAR":"0.00008769500000","EPHEMERIS_TYPE":"0","PERIAPSIS":"546.098","SEMIMAJOR_AXIS":"6925.358","OBJECT_NAME":"STARLINK-1550","DECAY_DATE":null,"FILE":"3763218","RA_OF_ASC_NODE":"35.1918","SITE":"AFETR","TLE_LINE2":"2 46365  53.0539  35.1918 0001624 104.9527 255.1642 15.06396922133587","REV_AT_EPOCH":"13358","APOAPSIS":"548.348","LAUNCH_DATE":"2020-09-03","MEAN_MOTION":"15.06396922","INCLINATION":"53.0539","MEAN_MOTION_DDOT":"0.0000000000000","ECCENTRICITY":"0.00016240","ARG_OF_PERICENTER":"104.9527","EPOCH":"2023-01-27T19:52:30.579744","CENTER_NAME":"EARTH","PERIOD":"95.592","ELEMENT_SET_NO":"999","TLE_LINE1":"1 46365U 20062AS  23027.82813171  .00001025  00000-0  87695-4 0  9996","OBJECT_ID":"2020-062AS","MEAN_ELEMENT_THEORY":"SGP4","TIME_SYSTEM":"UTC","OBJECT_TYPE":"PAYLOAD","MEAN_ANOMALY":"255.1642","NORAD_CAT_ID":"46365","CLASSIFICATION_TYPE":"U","RCS_SIZE":"LARGE","MEAN_MOTION_DOT":"0.00001025","GP_ID":"223835364"},{"COUNTRY_CODE":"US","BSTAR":"0.00008502700000","REF_FRAME":"TEME","EPHEMERIS_TYPE":"0","PERIAPSIS":"546.310","OBJECT_NAME":"STARLINK-1651","SEMIMAJOR_AXIS":"6925.345","DECAY_DATE":null,"FILE":"3762992","SITE":"AFETR","TLE_LINE2":"2 46366  53.0525  37.6290 0001300 104.6249 255.4885 15.06401187133685","RA_OF_ASC_NODE":"37.6290","APOAPSIS":"548.110","REV_AT_EPOCH":"13368","LAUNCH_DATE":"2020-09-03","INCLINATION":"53.0525","MEAN_MOTION":"15.06401187","ARG_OF_PERICENTER":"104.6249","ECCENTRICITY":"0.00013000","MEAN_MOTION_DDOT":"0.0000000000000","EPOCH":"2023-01-27T06:52:15.818880","CENTER_NAME":"EARTH","TLE_LINE1":"1 46366U 20062AT  23027.28629420  .00000985  00000-0  85027-4 0  9990","ELEMENT_SET_NO":"999","PERIOD":"95.592","OBJECT_ID":"2020-062AT","MEAN_ELEMENT_THEORY":"SGP4","TIME_SYSTEM":"UTC","MEAN_ANOMALY":"255.4885","OBJECT_TYPE":"PAYLOAD","NORAD_CAT_ID":"46366","CLASSIFICATION_TYPE":"U","RCS_SIZE":"LARGE","MEAN_MOTION_DOT":"0.00000985","GP_ID":"223810240"},{"LAUNCH_DATE":"2020-09-03","INCLINATION":"53.0552","MEAN_MOTION":"15.06395062","REV_AT_EPOCH":"13324","APOAPSIS":"548.139","RA_OF_ASC_NODE":"60.2245","SITE":"AFETR","TLE_LINE2":"2 46368  53.0552  60.2245 0001315  84.7516 275.3623 15.06395062133247","DECAY_DATE":null,"FILE":"3763218","PERIAPSIS":"546.318","SEMIMAJOR_AXIS":"6925.364","OBJECT_NAME":"STARLINK-1658","REF_FRAME":"TEME","BSTAR":"-0.00000356480000","EPHEMERIS_TYPE":"0","COUNTRY_CODE":"US","GP_ID":"223833864","RCS_SIZE":"LARGE","MEAN_MOTION_DOT":"-0.00000334","CLASSIFICATION_TYPE":"U","OBJECT_TYPE":"PAYLOAD","MEAN_ANOMALY":"275.3623","NORAD_CAT_ID":"46368","OBJECT_ID":"2020-062AV","MEAN_ELEMENT_THEORY":"SGP4","TIME_SYSTEM":"UTC","CENTER_NAME":"EARTH","ELEMENT_SET_NO":"999","PERIOD":"95.592","TLE_LINE1":"1 46368U 20062AV  23027.81566506 -.00000334  00000-0 -35648-5 0  9991","MEAN_MOTION_DDOT":"0.0000000000000","ECCENTRICITY":"0.00013150","ARG_OF_PERICENTER":"84.7516","EPOCH":"2023-01-27T19:34:33.461184"},{"NORAD_CAT_ID":"46370","OBJECT_TYPE":"PAYLOAD","MEAN_ANOMALY":"261.8393","MEAN_ELEMENT_THEORY":"SGP4","TIME_SYSTEM":"UTC","OBJECT_ID":"2020-062AX","PERIOD":"95.592","ELEMENT_SET_NO":"999","TLE_LINE1":"1 46370U 20062AX  23027.38166680  .00000246  00000-0  35394-4 0  9992","CENTER_NAME":"EARTH","EPOCH":"2023-01-27T09:09:36.011520","MEAN_MOTION_DDOT":"0.0000000000000","ARG_OF_PERICENTER":"98.2790","ECCENTRICITY":"0.00017130","GP_ID":"223802433","MEAN_MOTION_DOT":"0.00000246","RCS_SIZE":"LARGE","CLASSIFICATION_TYPE":"U","SEMIMAJOR_AXIS":"6925.354","OBJECT_NAME":"STARLINK-1670","PERIAPSIS":"546.033","EPHEMERIS_TYPE":"0","REF_FRAME":"TEME","BSTAR":"0.00003539400000","COUNTRY_CODE":"US","MEAN_MOTION":"15.06398254","INCLINATION":"53.0549","LAUNCH_DATE":"2020-09-03","REV_AT_EPOCH":"13317","APOAPSIS":"548.405","RA_OF_ASC_NODE":"62.1896","TLE_LINE2":"2 46370  53.0549  62.1896 0001713  98.2790 261.8393 15.06398254133177","SITE":"AFETR","FILE":"3762956","DECAY_DATE":null},{"GP_ID":"223811337","MEAN_MOTION_DOT":"0.00000396","RCS_SIZE":"LARGE","CLASSIFICATION_TYPE":"U","NORAD_CAT_ID":"46371","MEAN_ANOMALY":"254.5651","OBJECT_TYPE":"PAYLOAD","TIME_SYSTEM":"UTC","MEAN_ELEMENT_THEORY":"SGP4","OBJECT_ID":"2020-062AY","TLE_LINE1":"1 46371U 20062AY  23027.30794620  .00000396  00000-0  45465-4 0  9992","ELEMENT_SET_NO":"999","PERIOD":"95.592","CENTER_NAME":"EARTH","EPOCH":"2023-01-27T07:23:26.551680","ARG_OF_PERICENTER":"105.5516","ECCENTRICITY":"0.00016120","MEAN_MOTION_DDOT":"0.0000000000000","MEAN_MOTION":"15.06398099","INCLINATION":"53.0527","LAUNCH_DATE":"2020-09-03","REV_AT_EPOCH":"13334","APOAPSIS":"548.336","SITE":"AFETR","TLE_LINE2":"2 46371  53.0527  62.5333 0001612 105.5516 254.5651 15.06398099133342","RA_OF_ASC_NODE":"62.5333","FILE":"3763022","DECAY_DATE":null,"OBJECT_NAME":"STARLINK-1688","SEMIMAJOR_AXIS":"6925.354","PERIAPSIS":"546.103","EPHEMERIS_TYPE":"0","BSTAR":"0.00004546500000","REF_FRAME":"TEME","COUNTRY_CODE":"US"},{"PERIAPSIS":"546.203","OBJECT_NAME":"STARLINK-1689","SEMIMAJOR_AXIS":"6925.391","BSTAR":"0.00019964000000","REF_FRAME":"TEME","EPHEMERIS_TYPE":"0","COUNTRY_CODE":"US","LAUNCH_DATE":"2020-09-03","MEAN_MOTION":"15.06386198","INCLINATION":"53.0563","APOAPSIS":"548.309","REV_AT_EPOCH":"13296","SITE":"AFETR","TLE_LINE2":"2 46372  53.0563  80.1038 0001520 104.0819 256.0339 15.06386198132963","RA_OF_ASC_NODE":"80.1038","DECAY_DATE":null,"FILE":"3763218","MEAN_ANOMALY":"256.0339","OBJECT_TYPE":"PAYLOAD","NORAD_CAT_ID":"46372","OBJECT_ID":"2020-062AZ","TIME_SYSTEM":"UTC","MEAN_ELEMENT_THEORY":"SGP4","CENTER_NAME":"EARTH","TLE_LINE1":"1 46372U 20062AZ  23027.84794330  .00002692  00000-0  19964-3 0  9995","ELEMENT_SET_NO":"999","PERIOD":"95.593","ARG_OF_PERICENTER":"104.0819","ECCENTRICITY":"0.00015200","MEAN_MOTION_DDOT":"0.0000000000000","EPOCH":"2023-01-27T20:21:02.301120","GP_ID":"223835615","RCS_SIZE":"LARGE","MEAN_MOTION_DOT":"0.00002692","CLASSIFICATION_TYPE":"U"},{"EPOCH":"2023-01-27T08:43:15.252672","ECCENTRICITY":"0.00016150","ARG_OF_PERICENTER":"63.3286","MEAN_MOTION_DDOT":"0.0000000000000","TLE_LINE1":"1 46374U 20062BB  23027.36337098  .00003162  00000-0  23597-3 0  9998","ELEMENT_SET_NO":"999","PERIOD":"95.643","CENTER_NAME":"EARTH","MEAN_ELEMENT_THEORY":"SGP4","TIME_SYSTEM":"UTC","OBJECT_ID":"2020-062BB","NORAD_CAT_ID":"46374","MEAN_ANOMALY":"296.7867","OBJECT_TYPE":"PAYLOAD","CLASSIFICATION_TYPE":"U","MEAN_MOTION_DOT":"0.00003162","RCS_SIZE":"LARGE","GP_ID":"223803662","COUNTRY_CODE":"US","EPHEMERIS_TYPE":"0","BSTAR":"0.00023597000000","REF_FRAME":"TEME","OBJECT_NAME":"STARLINK-1711","SEMIMAJOR_AXIS":"6927.792","PERIAPSIS":"548.538","FILE":"3762956","DECAY_DATE":null,"TLE_LINE2":"2 46374  53.0550  11.9154 0001615  63.3286 296.7867 15.05603197133870","SITE":"AFETR","RA_OF_ASC_NODE":"11.9154","APOAPSIS":"550.776","REV_AT_EPOCH":"13387","INCLINATION":"53.0550","MEAN_MOTION":"15.05603197","LAUNCH_DATE":"2020-09-03"},{"APOAPSIS":"548.284","REV_AT_EPOCH":"13352","INCLINATION":"53.0552","MEAN_MOTION":"15.06403733","LAUNCH_DATE":"2020-09-03","FILE":"3762956","DECAY_DATE":null,"TLE_LINE2":"2 46375  53.0552  37.0493 0001562  91.4524 268.6644 15.06403733133524","SITE":"AFETR","RA_OF_ASC_NODE":"37.0493","OBJECT_NAME":"STARLINK-1724","SEMIMAJOR_AXIS":"6925.337","PERIAPSIS":"546.120","COUNTRY_CODE":"US","EPHEMERIS_TYPE":"0","BSTAR":"0.00022523000000","REF_FRAME":"TEME","MEAN_MOTION_DOT":"0.00003075","RCS_SIZE":"LARGE","GP_ID":"223801934","CLASSIFICATION_TYPE":"U","MEAN_ELEMENT_THEORY":"SGP4","TIME_SYSTEM":"UTC","OBJECT_ID":"2020-062BC","NORAD_CAT_ID":"46375","MEAN_ANOMALY":"268.6644","OBJECT_TYPE":"PAYLOAD","EPOCH":"2023-01-27T09:52:43.572288","ECCENTRICITY":"0.00015620","ARG_OF_PERICENTER":"91.4524","MEAN_MOTION_DDOT":"0.0000000000000","TLE_LINE1":"1 46375U 20062BC  23027.41161542  .00003075  00000-0  22523-3 0  9995","PERIOD":"95.592","ELEMENT_SET_NO":"999","CENTER_NAME":"EARTH"},{"OBJECT_TYPE":"PAYLOAD","MEAN_ANOMALY":"271.6782","NORAD_CAT_ID":"46376","OBJECT_ID":"2020-062BD","TIME_SYSTEM":"UTC","MEAN_ELEMENT_THEORY":"SGP4","CENTER_NAME":"EARTH","ELEMENT_SET_NO":"999","PERIOD":"95.592","TLE_LINE1":"1 46376U 20062BD  23027.29366357  .00003868  00000-0  27838-3 0  9997","MEAN_MOTION_DDOT":"0.0000000000000","ECCENTRICITY":"0.00015960","ARG_OF_PERICENTER":"88.4390","EPOCH":"2023-01-27T07:02:52.532448","GP_ID":"223802683","RCS_SIZE":"LARGE","MEAN_MOTION_DOT":"0.00003868","CLASSIFICATION_TYPE":"U","PERIAPSIS":"546.089","SEMIMAJOR_AXIS":"6925.329","OBJECT_NAME":"STARLINK-1742","REF_FRAME":"TEME","BSTAR":"0.00027838000000","EPHEMERIS_TYPE":"0","COUNTRY_CODE":"US","LAUNCH_DATE":"2020-09-03","MEAN_MOTION":"15.06406237","INCLINATION":"53.0536","REV_AT_EPOCH":"13350","APOAPSIS":"548.300","RA_OF_ASC_NODE":"37.5940","SITE":"AFETR","TLE_LINE2":"2 46376  53.0536  37.5940 0001596  88.4390 271.6782 15.06406237133500","DECAY_DATE":null,"FILE":"3762956"}];
